{"type": "FeatureCollection", "features": [ {"type": "Feature", "properties": {"norad_id": 66495, "name": "STARLINK-35832", "group": "last-30-days", "lat": 32.587404426537795, "lon": -87.45601751532347, "alt_km": 410.69106830640794, "timestamp": "2025-12-10T21:43:20.861597+00:00", "meta": {"OBJECT_NAME": "STARLINK-35832", "OBJECT_ID": "2025-263L", "EPOCH": "2025-12-10T14:00:03.000384", "MEAN_MOTION": 15.50634494, "ECCENTRICITY": 0.00014921, "INCLINATION": 43.0006, "RA_OF_ASC_NODE": 137.7369, "ARG_OF_PERICENTER": 262.6568, "MEAN_ANOMALY": 227.0048, "EPHEMERIS_TYPE": 0, "CLASSIFICATION_TYPE": "U", "NORAD_CAT_ID": 66495, "ELEMENT_SET_NO": 999, "REV_AT_EPOCH": 528, "BSTAR": -0.0023684978, "MEAN_MOTION_DOT": -0.00137155, "MEAN_MOTION_DDOT": 0}, "tle": {"line1": "1 66495U 25263L   25344.58336806 -.00137155  00000+0 -23685-2 0  9994", "line2": "2 66495  43.0006 137.7369 0001492 262.6568 227.0048 15.50634494  5281"}}, "geometry": {"type": "Point", "coordinates": [-87.45601751532347, 32.587404426537795]}}, {"type": "Feature", "properties": {"norad_id": 66496, "name": "STARLINK-35909", "group": "last-30-days", "lat": 31.62158051457846, "lon": -85.50679319410143, "alt_km": 410.8578405791095, "timestamp": "2025-12-10T21:43:20.861608+00:00", "meta": {"OBJECT_NAME": "STARLINK-35909", "OBJECT_ID": "2025-263M", "EPOCH": "2025-12-10T14:00:03.000384", "MEAN_MOTION": 15.50625871, "ECCENTRICITY": 0.00015038, "INCLINATION": 43.0007, "RA_OF_ASC_NODE": 137.7318, "ARG_OF_PERICENTER": 264.9562, "MEAN_ANOMALY": 226.625, "EPHEMERIS_TYPE": 0, "CLASSIFICATION_TYPE": "U", "NORAD_CAT_ID": 66496, "ELEMENT_SET_NO": 999, "REV_AT_EPOCH": 528, "BSTAR": -0.0021521096, "MEAN_MOTION_DOT": -0.00124813, "MEAN_MOTION_DDOT": 0}, "tle": {"line1": "1 66496U 25263M   25344.58336806 -.00124813  00000+0 -21521-2 0  9999", "line2": "2 66496  43.0007 137.7318 0001503 264.9562 226.6250 15.50625871  5288"}}, "geometry": {"type": "Point", "coordinates": [-85.50679319410143, 31.62158051457846]}}, {"type": "Feature", "properties": {"norad_id": 66497, "name": "STARLINK-35899", "group": "last-30-days", "lat": 30.627456704067825, "lon": -83.59968046797346, "alt_km": 411.0816666922383, "timestamp": "2025-12-10T21:43:20.861618+00:00", "meta": {"OBJECT_NAME": "STARLINK-35899", "OBJECT_ID": "2025-263N", "EPOCH": "2025-12-10T14:00:03.000384", "MEAN_MOTION": 15.50621422, "ECCENTRICITY": 0.00015372, "INCLINATION": 43.0007, "RA_OF_ASC_NODE": 137.7271, "ARG_OF_PERICENTER": 270.6326, "MEAN_ANOMALY": 222.8634, "EPHEMERIS_TYPE": 0, "CLASSIFICATION_TYPE": "U", "NORAD_CAT_ID": 66497, "ELEMENT_SET_NO": 999, "REV_AT_EPOCH": 528, "BSTAR": -0.0020428607, "MEAN_MOTION_DOT": -0.00118569, "MEAN_MOTION_DDOT": 0}, "tle": {"line1": "1 66497U 25263N   25344.58336806 -.00118569  00000+0 -20429-2 0  9997", "line2": "2 66497  43.0007 137.7271 0001537 270.6326 222.8634 15.50621422  5288"}}, "geometry": {"type": "Point", "coordinates": [-83.59968046797346, 30.627456704067825]}}, {"type": "Feature", "properties": {"norad_id": 66498, "name": "STARLINK-35907", "group": "last-30-days", "lat": 39.55511711489346, "lon": -106.52281634662533, "alt_km": 431.8631813020438, "timestamp": "2025-12-10T21:43:20.861628+00:00", "meta": {"OBJECT_NAME": "STARLINK-35907", "OBJECT_ID": "2025-263P", "EPOCH": "2025-12-10T14:00:03.000384", "MEAN_MOTION": 15.44516145, "ECCENTRICITY": 0.00012569, "INCLINATION": 43.0003, "RA_OF_ASC_NODE": 137.758, "ARG_OF_PERICENTER": 276.6586, "MEAN_ANOMALY": 204.0308, "EPHEMERIS_TYPE": 0, "CLASSIFICATION_TYPE": "U", "NORAD_CAT_ID": 66498, "ELEMENT_SET_NO": 999, "REV_AT_EPOCH": 528, "BSTAR": -0.049211336, "MEAN_MOTION_DOT": -0.02074408, "MEAN_MOTION_DDOT": 0}, "tle": {"line1": "1 66498U 25263P   25344.58336806 -.02074408  00000+0 -49211-1 0  9992", "line2": "2 66498  43.0003 137.7580 0001256 276.6586 204.0308 15.44516145  5288"}}, "geometry": {"type": "Point", "coordinates": [-106.52281634662533, 39.55511711489346]}}, {"type": "Feature", "properties": {"norad_id": 66499, "name": "STARLINK-35816", "group": "last-30-days", "lat": 29.858924831289016, "lon": -82.18750225427767, "alt_km": 420.766792159694, "timestamp": "2025-12-10T21:43:20.861638+00:00", "meta": {"OBJECT_NAME": "STARLINK-35816", "OBJECT_ID": "2025-263Q", "EPOCH": "2025-12-10T14:00:03.000384", "MEAN_MOTION": 15.48767862, "ECCENTRICITY": 0.00012732, "INCLINATION": 43.0006, "RA_OF_ASC_NODE": 137.7153, "ARG_OF_PERICENTER": 271.433, "MEAN_ANOMALY": 226.485, "EPHEMERIS_TYPE": 0, "CLASSIFICATION_TYPE": "U", "NORAD_CAT_ID": 66499, "ELEMENT_SET_NO": 999, "REV_AT_EPOCH": 528, "BSTAR": -0.043093845, "MEAN_MOTION_DOT": -0.02103765, "MEAN_MOTION_DDOT": 0}, "tle": {"line1": "1 66499U 25263Q   25344.58336806 -.02103765  00000+0 -43094-1 0  9995", "line2": "2 66499  43.0006 137.7153 0001273 271.4330 226.4850 15.48767862  5285"}}, "geometry": {"type": "Point", "coordinates": [-82.18750225427767, 29.858924831289016]}}, {"type": "Feature", "properties": {"norad_id": 66500, "name": "STARLINK-35894", "group": "last-30-days", "lat": 41.883504896872296, "lon": -149.80839198753094, "alt_km": 424.7600936943827, "timestamp": "2025-12-10T21:43:20.861649+00:00", "meta": {"OBJECT_NAME": "STARLINK-35894", "OBJECT_ID": "2025-263R", "EPOCH": "2025-12-10T14:00:03.000384", "MEAN_MOTION": 15.46666825, "ECCENTRICITY": 0.00015536, "INCLINATION": 43.0004, "RA_OF_ASC_NODE": 137.8446, "ARG_OF_PERICENTER": 279.8028, "MEAN_ANOMALY": 165.7212, "EPHEMERIS_TYPE": 0, "CLASSIFICATION_TYPE": "U", "NORAD_CAT_ID": 66500, "ELEMENT_SET_NO": 999, "REV_AT_EPOCH": 528, "BSTAR": -0.040267692, "MEAN_MOTION_DOT": -0.01853384, "MEAN_MOTION_DDOT": 0}, "tle": {"line1": "1 66500U 25263R   25344.58336806 -.01853384  00000+0 -40268-1 0  9996", "line2": "2 66500  43.0004 137.8446 0001553 279.8028 165.7212 15.46666825  5281"}}, "geometry": {"type": "Point", "coordinates": [-149.80839198753094, 41.883504896872296]}}, {"type": "Feature", "properties": {"norad_id": 66501, "name": "STARLINK-35897", "group": "last-30-days", "lat": 26.44024795685007, "lon": -76.42655305690386, "alt_km": 412.659156304062, "timestamp": "2025-12-10T21:43:20.861659+00:00", "meta": {"OBJECT_NAME": "STARLINK-35897", "OBJECT_ID": "2025-263S", "EPOCH": "2025-12-10T14:00:03.000384", "MEAN_MOTION": 15.50941487, "ECCENTRICITY": 0.00014145, "INCLINATION": 43.0005, "RA_OF_ASC_NODE": 137.7074, "ARG_OF_PERICENTER": 260.9483, "MEAN_ANOMALY": 240.1616, "EPHEMERIS_TYPE": 0, "CLASSIFICATION_TYPE": "U", "NORAD_CAT_ID": 66501, "ELEMENT_SET_NO": 999, "REV_AT_EPOCH": 529, "BSTAR": -0.020794197, "MEAN_MOTION_DOT": -0.01115987, "MEAN_MOTION_DDOT": 0}, "tle": {"line1": "1 66501U 25263S   25344.58336806 -.01115987  00000+0 -20794-1 0  9999", "line2": "2 66501  43.0005 137.7074 0001414 260.9483 240.1616 15.50941487  5293"}}, "geometry": {"type": "Point", "coordinates": [-76.42655305690386, 26.44024795685007]}}, {"type": "Feature", "properties": {"norad_id": 66502, "name": "STARLINK-35922", "group": "last-30-days", "lat": 22.969502415408115, "lon": -71.24422155776664, "alt_km": 412.132797118953, "timestamp": "2025-12-10T21:43:20.861671+00:00", "meta": {"OBJECT_NAME": "STARLINK-35922", "OBJECT_ID": "2025-263T", "EPOCH": "2025-12-10T14:00:03.000384", "MEAN_MOTION": 15.50631348, "ECCENTRICITY": 0.00014898, "INCLINATION": 43.0006, "RA_OF_ASC_NODE": 137.6925, "ARG_OF_PERICENTER": 270.7717, "MEAN_ANOMALY": 236.1448, "EPHEMERIS_TYPE": 0, "CLASSIFICATION_TYPE": "U", "NORAD_CAT_ID": 66502, "ELEMENT_SET_NO": 999, "REV_AT_EPOCH": 529, "BSTAR": -0.0023533407, "MEAN_MOTION_DOT": -0.0013628, "MEAN_MOTION_DDOT": 0}, "tle": {"line1": "1 66502U 25263T   25344.58336806 -.00136280  00000+0 -23533-2 0  9993", "line2": "2 66502  43.0006 137.6925 0001489 270.7717 236.1448 15.50631348  5290"}}, "geometry": {"type": "Point", "coordinates": [-71.24422155776664, 22.969502415408115]}}, {"type": "Feature", "properties": {"norad_id": 66503, "name": "STARLINK-35917", "group": "last-30-days", "lat": 20.60740339321568, "lon": -67.99707834218634, "alt_km": 412.4425840619806, "timestamp": "2025-12-10T21:43:20.861681+00:00", "meta": {"OBJECT_NAME": "STARLINK-35917", "OBJECT_ID": "2025-263U", "EPOCH": "2025-12-10T14:00:03.000384", "MEAN_MOTION": 15.50631725, "ECCENTRICITY": 0.00015344, "INCLINATION": 43.0007, "RA_OF_ASC_NODE": 137.6833, "ARG_OF_PERICENTER": 268.9427, "MEAN_ANOMALY": 241.808, "EPHEMERIS_TYPE": 0, "CLASSIFICATION_TYPE": "U", "NORAD_CAT_ID": 66503, "ELEMENT_SET_NO": 999, "REV_AT_EPOCH": 529, "BSTAR": -0.002346175, "MEAN_MOTION_DOT": -0.00135875, "MEAN_MOTION_DDOT": 0}, "tle": {"line1": "1 66503U 25263U   25344.58336806 -.00135875  00000+0 -23462-2 0  9994", "line2": "2 66503  43.0007 137.6833 0001534 268.9427 241.8080 15.50631725  5292"}}, "geometry": {"type": "Point", "coordinates": [-67.99707834218634, 20.60740339321568]}}, {"type": "Feature", "properties": {"norad_id": 66504, "name": "STARLINK-35916", "group": "last-30-days", "lat": -37.62983500569388, "lon": 81.37832089870123, "alt_km": 445.88544316799744, "timestamp": "2025-12-10T21:43:20.861693+00:00", "meta": {"OBJECT_NAME": "STARLINK-35916", "OBJECT_ID": "2025-263V", "EPOCH": "2025-12-09T22:39:36.400320", "MEAN_MOTION": 15.40719058, "ECCENTRICITY": 0.00015372, "INCLINATION": 43.0001, "RA_OF_ASC_NODE": 142.7409, "ARG_OF_PERICENTER": 268.6806, "MEAN_ANOMALY": 91.3875, "EPHEMERIS_TYPE": 0, "CLASSIFICATION_TYPE": "U", "NORAD_CAT_ID": 66504, "ELEMENT_SET_NO": 999, "REV_AT_EPOCH": 511, "BSTAR": 0.0011340685, "MEAN_MOTION_DOT": 0.00047394, "MEAN_MOTION_DDOT": 0}, "tle": {"line1": "1 66504U 25263V   25343.94417130  .00047394  00000+0  11341-2 0  9993", "line2": "2 66504  43.0001 142.7409 0001537 268.6806  91.3875 15.40719058  5110"}}, "geometry": {"type": "Point", "coordinates": [81.37832089870123, -37.62983500569388]}}]}